OBJECT_NAME,OBJECT_ID,EPOCH,MEAN_MOTION,ECCENTRICITY,INCLINATION,RA_OF_ASC_NODE,ARG_OF_PERICENTER,MEAN_ANOMALY,EPHEMERIS_TYPE,CLASSIFICATION_TYPE,NORAD_CAT_ID,ELEMENT_SET_NO,REV_AT_EPOCH,BSTAR,MEAN_MOTION_DOT,MEAN_MOTION_DDOT
AEHF-4 (USA 288),2018-079A,2026-06-17T03:14:11.815008,1.00272496,.0060396,1.4321,3.9997,356.0538,246.3706,0,U,43651,999,2829,0,-.279E-5,0
BEIDOU-3 G1,2018-085A,2026-06-17T04:03:19.776096,1.00270347,.0008046,2.8677,97.3692,349.5379,39.3073,0,U,43683,999,2806,0,-.114E-5,0
GSAT-29,2018-089A,2026-06-16T09:51:06.822432,1.00273818,.00032798,0.0647,98.6697,339.3355,29.5152,0,U,43698,999,2778,0,.83E-6,0
ES'HAIL 2,2018-090A,2026-06-16T18:16:15.449952,1.00270422,.0001609,0.0175,13.0563,111.1044,80.7103,0,U,43700,999,2767,0,.141E-5,0
GEO-KOMPSAT-2A,2018-100A,2026-06-16T15:20:09.734784,1.00270764,.0001803,0.0523,115.8368,330.9204,176.4552,0,U,43823,999,2762,0,-.346E-5,0
GSAT-11,2018-100B,2026-06-16T22:47:58.977024,1.00271096,.0007662,0.0333,247.5083,200.3541,233.3433,0,U,43824,999,2747,0,-.8E-6,0
GSAT-7A,2018-105A,2026-06-16T22:33:40.079808,1.00270838,.0001942,0.0123,60.7344,1.7233,243.9156,0,U,43864,999,2744,0,.24E-6,0
COSMOS 2533,2018-107A,2026-06-16T22:43:12.690624,1.00271834,.0000987,0.0462,90.8842,33.8801,191.2318,0,U,43867,999,2744,0,-.42E-6,0
TJS-3,2018-110A,2026-06-16T18:27:32.124384,1.00270545,.0002137,2.5442,80.4963,83.1159,166.5595,0,U,43874,999,2741,0,-.22E-5,0
ZHONGXING-2D,2019-001A,2026-06-16T18:45:52.817184,1.00271540,.0001449,0.0343,246.2410,89.4224,340.8709,0,U,43920,999,5407,0,-.339E-5,0
HELLAS-SAT 4 & SGS-1,2019-007A,2026-06-16T13:11:58.225344,1.00269456,.0004792,0.0770,128.0342,11.7763,2.0381,0,U,44034,999,2736,0,.151E-5,0
GSAT-31,2019-007B,2026-06-16T18:22:29.852256,1.00274116,.0001718,0.0662,258.9943,103.7626,225.7380,0,U,44035,999,2696,0,.123E-5,0
NUSANTARA SATU,2019-009A,2026-06-15T06:54:39.859776,1.00270641,.000419,0.0501,149.2515,326.8182,37.1818,0,U,44048,999,2675,0,-.231E-5,0
ZHONGXING-6C,2019-012A,2026-06-16T18:46:00.304608,1.00260150,.0013113,0.0751,72.3898,335.7082,268.8241,0,U,44067,999,2673,0,-.339E-5,0
WGS 10 (USA 291),2019-014A,2026-06-16T22:54:10.254240,1.00272069,.0000449,0.0160,10.6438,314.1182,344.3108,0,U,44071,999,2661,0,.43E-6,0
TIANLIAN 2-01,2019-017A,2026-06-16T09:57:28.711296,1.00270522,.00006689,0.5384,83.1151,33.1378,14.8104,0,U,44076,999,2664,0,-.108E-5,0
ARABSAT-6A,2019-021A,2026-06-16T18:17:30.331104,1.00261957,.0001035,0.0505,5.5983,332.7934,231.4495,0,U,44186,999,2615,0,.15E-5,0
BEIDOU-3 IGSO-1,2019-023A,2026-06-16T14:11:00.247776,1.00291370,.0025458,58.6939,37.6556,225.7166,332.2073,0,U,44204,999,720,0,-.221E-5,0
BEIDOU-2 G8,2019-027A,2026-06-16T18:50:07.411200,1.00270894,.0010216,1.6567,74.4880,281.8072,335.8279,0,U,44231,999,2607,0,-.251E-5,0
YAMAL 601,2019-031A,2026-06-16T18:22:44.828832,1.00270910,.0002342,0.0191,62.0752,26.8709,140.7701,0,U,44307,999,2592,0,.117E-5,0
AT&T T-16,2019-034A,2026-06-16T15:57:24.126048,1.00268512,.0000804,0.0218,61.0762,214.9067,127.4309,0,U,44333,999,2562,0,-.117E-5,0
EUTELSAT 7C,2019-034B,2026-06-15T06:14:58.667136,1.00272253,.0003062,0.0734,175.5544,250.1525,298.5954,0,U,44334,999,681,0,.52E-6,0
BEIDOU-3 IGSO-2,2019-035A,2026-06-14T14:58:00.763680,1.00267330,.0039904,55.2456,158.8849,216.4592,231.8306,0,U,44337,999,2564,0,-.71E-6,0
COSMOS 2539,2019-048A,2026-06-16T18:12:15.530976,1.00256335,.0001293,0.0358,87.2209,32.8439,69.9989,0,U,44457,999,2522,0,.76E-6,0
EDRS-C,2019-049A,2026-06-16T17:06:46.958400,1.00269471,.0000101,0.0209,85.9333,38.0010,180.2394,0,U,44475,999,2520,0,-.265E-5,0
INTELSAT 39 (IS-39),2019-049B,2026-06-16T22:32:04.249248,1.00269114,.0000945,0.0008,356.4174,318.0874,350.6593,0,U,44476,999,2512,0,.31E-6,0
AMOS-17,2019-050A,2026-06-16T22:03:56.381184,1.00272916,.0001616,0.0148,340.4324,139.0917,133.6349,0,U,44479,999,2518,0,.106E-5,0
AEHF-5 (USA 292),2019-051A,2026-06-16T23:43:31.253088,1.00273718,.0066343,1.4545,336.2154,0.0097,17.9617,0,U,44481,999,2526,0,-.261E-5,0
EUTELSAT 5 WEST B,2019-067A,2026-06-15T16:27:31.817088,1.00272136,.00028732,0.0632,3.7418,78.7733,63.3583,0,U,44624,999,2442,0,-.4E-6,0
TJS-4,2019-070A,2026-06-16T15:07:18.468768,1.00268284,.0004446,0.0156,30.5389,10.1649,174.4757,0,U,44637,999,2453,0,-.17E-5,0
TIBA-1,2019-080A,2026-06-16T22:09:29.066112,1.00270598,.0001816,0.0531,11.4815,85.4779,176.0733,0,U,44800,999,2405,0,.153E-5,0
INMARSAT GX5,2019-080B,2026-06-16T21:57:33.522048,1.00272863,.0002266,0.0344,353.9608,108.1800,143.4605,0,U,44801,999,678,0,.72E-6,0
